NORAD_CAT_ID,OBJECT_NAME,OBJECT_TYPE,EPOCH,MEAN_MOTION,ECCENTRICITY,INCLINATION,RA_OF_ASC_NODE,ARG_OF_PERICENTER,MEAN_ANOMALY,BSTAR,MEAN_MOTION_DOT,MEAN_MOTION_DDOT,TLE_LINE0,TLE_LINE1,TLE_LINE2,SEMIMAJOR_AXIS,PERIOD,APOGEE,PERIGEE,DECAYED
53702.0,STARLINK-4724,PAYLOAD,2023-12-30 21:25:11,15.0886188,0.0001554,53.2145,219.4513,82.3839,277.733,0.0005978,9.244e-05,0.0,0 STARLINK-4724,1 53702U 22107C   23364.89249586  .00009244  00000-0  59780-3 0  9999,2 53702  53.2145 219.4513 0001554  82.3839 277.7330 15.08861880 74355,6917.814,95.436,540.754,538.603,0.0
53702.0,STARLINK-4724,PAYLOAD,2023-12-31 19:40:35,15.08852064,0.0001554,53.215,215.287,88.9397,271.1773,5.7765e-05,6.32e-06,0.0,0 STARLINK-4724,1 53702U 22107C   23365.81985180  .00000632  00000-0  57765-4 0  9993,2 53702  53.2150 215.2870 0001554  88.9397 271.1773 15.08852064 73714,6917.844,95.437,540.784,538.633,0.0
53702.0,STARLINK-4724,PAYLOAD,2024-01-01 13:09:49,15.08843676,0.0001622,53.2147,212.0158,90.7487,269.3691,-1.897e-05,-5.9e-06,0.0,0 STARLINK-4724,1 53702U 22107C   24001.54849179 -.00000590  00000-0 -18970-4 0  9998,2 53702  53.2147 212.0158 0001622  90.7487 269.3691 15.08843676 74607,6917.869,95.437,540.856,538.612,0.0
53702.0,STARLINK-4724,PAYLOAD,2024-01-01 19:31:22,15.08845376,0.0001612,53.2156,210.8271,92.716,267.4017,-1.4157e-05,-5.13e-06,0.0,0 STARLINK-4724,1 53702U 22107C   24001.81345051 -.00000513  00000-0 -14157-4 0  9996,2 53702  53.2156 210.8271 0001612  92.7160 267.4017 15.08845376 73865,6917.864,95.437,540.844,538.614,0.0
53702.0,STARLINK-4724,PAYLOAD,2024-01-02 13:00:36,15.08841216,0.000157,53.2155,207.5573,84.0453,276.0718,0.00012835,1.755e-05,0.0,0 STARLINK-4724,1 53702U 22107C   24002.54209398  .00001755  00000-0  12835-3 0  9997,2 53702  53.2155 207.5573 0001570  84.0453 276.0718 15.08841216 74756,6917.877,95.437,540.828,538.656,0.0
53702.0,STARLINK-4724,PAYLOAD,2024-01-02 19:22:09,15.08838512,0.0001565,53.2152,206.3672,75.6327,284.4839,6.5798e-05,7.59e-06,0.0,0 STARLINK-4724,1 53702U 22107C   24002.80705599  .00000759  00000-0  65798-4 0  9990,2 53702  53.2152 206.3672 0001565  75.6327 284.4839 15.08838512 74011,6917.885,95.438,540.833,538.667,0.0
53702.0,STARLINK-4724,PAYLOAD,2024-01-02 20:57:32,15.08837054,0.0001553,53.2151,206.0698,81.0556,279.0612,3.7291e-05,3.05e-06,0.0,0 STARLINK-4724,1 53702U 22107C   24002.87329624  .00000305  00000-0  37291-4 0  9992,2 53702  53.2151 206.0698 0001553  81.0556 279.0612 15.08837054 74803,6917.889,95.438,540.829,538.68,0.0
53702.0,STARLINK-4724,PAYLOAD,2024-01-03 12:51:24,15.08838266,0.0001491,53.2147,203.0956,83.7685,276.3477,5.8756e-05,6.47e-06,0.0,0 STARLINK-4724,1 53702U 22107C   24003.53569691  .00000647  00000-0  58756-4 0  9994,2 53702  53.2147 203.0956 0001491  83.7685 276.3477 15.08838266 74901,6917.886,95.438,540.782,538.719,0.0
53702.0,STARLINK-4724,PAYLOAD,2024-01-03 20:48:19,15.08840808,0.0001519,53.2159,201.609,84.9358,275.1807,7.7059e-05,9.39e-06,0.0,0 STARLINK-4724,1 53702U 22107C   24003.86689794  .00000939  00000-0  77059-4 0  9998,2 53702  53.2159 201.6090 0001519  84.9358 275.1807 15.08840808 74952,6917.878,95.438,540.794,538.692,0.0
53702.0,STARLINK-4724,PAYLOAD,2024-01-04 12:42:11,15.08842074,0.0001521,53.2159,198.6351,84.7283,275.3882,0.00012795,1.749e-05,0.0,0 STARLINK-4724,1 53702U 22107C   24004.52929575  .00001749  00000-0  12795-3 0  9991,2 53702  53.2159 198.6351 0001521  84.7283 275.3882 15.08842074 75059,6917.874,95.437,540.791,538.687,0.0
53702.0,STARLINK-4724,PAYLOAD,2024-01-04 19:03:43,15.08844013,0.0001536,53.2159,197.4457,84.1946,275.9222,0.00013798,1.909e-05,0.0,0 STARLINK-4724,1 53702U 22107C   24004.79425420  .00001909  00000-0  13798-3 0  9992,2 53702  53.2159 197.4457 0001536  84.1946 275.9222 15.08844013 75092,6917.868,95.437,540.796,538.671,0.0
53702.0,STARLINK-4724,PAYLOAD,2024-01-05 18:54:30,15.08840554,0.0001453,53.2159,192.9847,94.3731,265.7427,6.8785e-05,8.07e-06,0.0,0 STARLINK-4724,1 53702U 22107C   24005.78785723  .00000807  00000-0  68785-4 0  9990,2 53702  53.2159 192.9847 0001453  94.3731 265.7427 15.08840554 74468,6917.879,95.438,540.749,538.739,0.0
53702.0,STARLINK-4724,PAYLOAD,2024-01-06 12:23:45,15.08842657,0.000145,53.2158,189.7135,98.7678,261.3479,4.8393e-05,4.82e-06,0.0,0 STARLINK-4724,1 53702U 22107C   24006.51649562  .00000482  00000-0  48393-4 0  9994,2 53702  53.2158 189.7135 0001450  98.7678 261.3479 15.08842657 75350,6917.872,95.437,540.74,538.734,0.0
53702.0,STARLINK-4724,PAYLOAD,2024-01-06 21:56:03,15.08843443,0.0001448,53.216,187.9293,98.0011,262.1145,3.8919e-05,3.32e-06,0.0,0 STARLINK-4724,1 53702U 22107C   24006.91393384  .00000332  00000-0  38919-4 0  9993,2 53702  53.2160 187.9293 0001448  98.0011 262.1145 15.08843443 75419,6917.87,95.437,540.737,538.733,0.0
53702.0,STARLINK-4724,PAYLOAD,2024-01-07 12:14:32,15.08837234,0.0001472,53.2166,185.2525,95.8967,264.2193,5.5641e-05,5.98e-06,0.0,0 STARLINK-4724,1 53702U 22107C   24007.51009807  .00000598  00000-0  55641-4 0  9999,2 53702  53.2166 185.2525 0001472  95.8967 264.2193 15.08837234 74726,6917.889,95.438,540.772,538.736,0.0
53702.0,STARLINK-4724,PAYLOAD,2024-01-07 17:00:41,15.08839327,0.0001471,53.2168,184.3604,98.4235,261.6924,6.8529e-05,8.03e-06,0.0,0 STARLINK-4724,1 53702U 22107C   24007.70881671  .00000803  00000-0  68529-4 0  9995,2 53702  53.2168 184.3604 0001471  98.4235 261.6924 15.08839327 75530,6917.882,95.438,540.765,538.73,0.0
53702.0,STARLINK-4724,PAYLOAD,2024-01-08 12:05:19,15.0883822,0.0001446,53.2168,180.7922,95.3017,264.814,3.0714e-05,2.01e-06,0.0,0 STARLINK-4724,1 53702U 22107C   24008.50369966  .00000201  00000-0  30714-4 0  9999,2 53702  53.2168 180.7922 0001446  95.3017 264.8140 15.08838220 75658,6917.886,95.438,540.751,538.751,0.0
53702.0,STARLINK-4724,PAYLOAD,2024-01-08 16:51:29,15.08838264,0.0001436,53.2169,179.8999,100.8045,259.3109,2.4838e-05,1.07e-06,0.0,0 STARLINK-4724,1 53702U 22107C   24008.70241964  .00000107  00000-0  24838-4 0  9993,2 53702  53.2169 179.8999 0001436 100.8045 259.3109 15.08838264 74903,6917.886,95.438,540.744,538.757,0.0
53702.0,STARLINK-4724,PAYLOAD,2024-01-09 19:53:02,15.08843204,0.0001337,53.2173,174.8482,94.5295,265.585,9.69e-05,1.255e-05,0.0,0 STARLINK-4724,1 53702U 22107C   24009.82849676  .00001255  00000-0  96900-4 0  9995,2 53702  53.2173 174.8482 0001337  94.5295 265.5850 15.08843204 75077,6917.871,95.437,540.661,538.811,0.0
53702.0,STARLINK-4724,PAYLOAD,2024-01-10 10:11:30,15.08839609,0.0001405,53.2181,172.1713,96.6827,263.4325,7.723e-05,9.41e-06,0.0,0 STARLINK-4724,1 53702U 22107C   24010.42465979  .00000941  00000-0  77230-4 0  9999,2 53702  53.2181 172.1713 0001405  96.6827 263.4325 15.08839609 75948,6917.882,95.438,540.719,538.775,0.0
53702.0,STARLINK-4724,PAYLOAD,2024-01-11 10:02:17,15.08803436,0.0001664,53.2183,167.7102,105.9019,254.2156,0.00061427,9.492e-05,0.0,0 STARLINK-4724,1 53702U 22107C   24011.41825915  .00009492  00000-0  61427-3 0  9999,2 53702  53.2183 167.7102 0001664 105.9019 254.2156 15.08803436 75316,6917.992,95.44,541.008,538.706,0.0
53702.0,STARLINK-4724,PAYLOAD,2024-01-11 14:48:26,15.0884723,0.0001228,53.2164,166.817,98.6622,261.4509,7.1533e-05,8.51e-06,0.0,0 STARLINK-4724,1 53702U 22107C   24011.61697409  .00000851  00000-0  71533-4 0  9996,2 53702  53.2164 166.8170 0001228  98.6622 261.4509 15.08847230 76126,6917.858,95.437,540.573,538.874,0.0
53702.0,STARLINK-4724,PAYLOAD,2024-01-11 19:34:35,15.08855371,0.0001204,53.2161,165.9243,97.707,262.4059,0.00012567,1.714e-05,0.0,0 STARLINK-4724,1 53702U 22107C   24011.81568660  .00001714  00000-0  12567-3 0  9994,2 53702  53.2161 165.9243 0001204  97.7070 262.4059 15.08855371 75377,6917.833,95.437,540.531,538.865,0.0
53702.0,STARLINK-4724,PAYLOAD,2024-01-12 09:53:04,15.08836789,0.000115,53.2164,163.2483,102.386,257.7261,-1.0195e-05,-4.5e-06,0.0,0 STARLINK-4724,1 53702U 22107C   24012.41186309 -.00000450  00000-0 -10195-4 0  9991,2 53702  53.2164 163.2483 0001150 102.3860 257.7261 15.08836789 75461,6917.89,95.438,540.551,538.96,0.0
53702.0,STARLINK-4724,PAYLOAD,2024-01-12 14:39:14,15.08839176,0.0001591,53.2167,162.3557,110.0478,250.0685,2.1283e-06,-2.54e-06,0.0,0 STARLINK-4724,1 53702U 22107C   24012.61058126 -.00000254  00000-0  21283-5 0  9990,2 53702  53.2167 162.3557 0001591 110.0478 250.0685 15.08839176 76275,6917.883,95.438,540.849,538.647,0.0
53702.0,STARLINK-4724,PAYLOAD,2024-01-12 19:25:23,15.08840955,0.0001315,53.2164,161.4639,107.8453,252.2682,1.9013e-05,1.5e-07,0.0,0 STARLINK-4724,1 53702U 22107C   24012.80929960  .00000015  00000-0  19013-4 0  9995,2 53702  53.2164 161.4639 0001315 107.8453 252.2682 15.08840955 76306,6917.877,95.437,540.652,538.833,0.0
53702.0,STARLINK-4724,PAYLOAD,2024-01-13 14:30:00,15.0884778,0.0001453,53.2166,157.896,92.5562,267.5597,3.0299e-05,1.94e-06,0.0,0 STARLINK-4724,1 53702U 22107C   24013.60417698  .00000194  00000-0  30299-4 0  9991,2 53702  53.2166 157.8960 0001453  92.5562 267.5597 15.08847780 76428,6917.857,95.437,540.727,538.716,0.0
53702.0,STARLINK-4724,PAYLOAD,2024-01-13 19:16:10,15.08848564,0.0001457,53.2159,157.003,103.4243,256.6911,0.00015019,2.104e-05,0.0,0 STARLINK-4724,1 53702U 22107C   24013.80289674  .00002104  00000-0  15019-3 0  9999,2 53702  53.2159 157.0030 0001457 103.4243 256.6911 15.08848564 75678,6917.854,95.437,540.727,538.711,0.0
53702.0,STARLINK-4724,PAYLOAD,2024-01-14 09:34:39,15.08834468,0.0001415,53.2165,154.321,120.154,239.9592,0.00010961,1.457e-05,0.0,0 STARLINK-4724,1 53702U 22107C   24014.39906503  .00001457  00000-0  10961-3 0  9992,2 53702  53.2165 154.3210 0001415 120.1540 239.9592 15.08834468 75762,6917.897,95.438,540.741,538.783,0.0
53702.0,STARLINK-4724,PAYLOAD,2024-01-14 14:20:48,15.08838977,0.0001475,53.2168,153.4349,106.0457,254.0698,0.00014285,1.986e-05,0.0,0 STARLINK-4724,1 53702U 22107C   24014.59778463  .00001986  00000-0  14285-3 0  9996,2 53702  53.2168 153.4349 0001475 106.0457 254.0698 15.08838977 76578,6917.884,95.438,540.769,538.728,0.0
